NORAD_CAT_ID,OBJECT_NAME,OBJECT_TYPE,EPOCH,MEAN_MOTION,ECCENTRICITY,INCLINATION,RA_OF_ASC_NODE,ARG_OF_PERICENTER,MEAN_ANOMALY,BSTAR,MEAN_MOTION_DOT,MEAN_MOTION_DDOT,TLE_LINE0,TLE_LINE1,TLE_LINE2,SEMIMAJOR_AXIS,PERIOD,APOGEE,PERIGEE,DECAYED
51882.0,STARLINK-3570,PAYLOAD,2022-03-26 22:00:00,15.73197123,9.63e-05,53.2187,28.7793,61.2692,335.0575,-2.5177e-05,-4.15e-05,0.0,0 STARLINK-3570,1 51882U 22022AG  22085.91667824 -.00004150  00000-0 -25177-4 0  9990,2 51882  53.2187  28.7793 0000963  61.2692 335.0575 15.73197123  3710,6727.903,91.533,350.416,349.12,0.0
51882.0,STARLINK-3570,PAYLOAD,2022-03-27 06:00:00,15.73148801,9.84e-05,53.2187,27.1318,43.7881,81.4729,0.00040593,0.00056609,0.0,0 STARLINK-3570,1 51882U 22022AG  22086.25001157  .00056609  00000-0  40593-3 0  9991,2 51882  53.2187  27.1318 0000984  43.7881  81.4729 15.73148801  4986,6728.041,91.536,350.5680000000001,349.244,0.0
51882.0,STARLINK-3570,PAYLOAD,2022-03-27 14:00:01,15.73194834,7.68e-05,53.2184,25.4805,50.8432,163.3255,0.00042187,0.0005899,0.0,0 STARLINK-3570,1 51882U 22022AG  22086.58334491  .00058990  00000-0  42187-3 0  9993,2 51882  53.2184  25.4805 0000768  50.8432 163.3255 15.73194834  3717,6727.91,91.533,350.292,349.2580000000001,0.0
51882.0,STARLINK-3570,PAYLOAD,2022-03-27 22:00:01,15.73268048,8.149999999999999e-05,53.2185,23.8311,59.4322,243.7319,-1.5646e-05,-2.821e-05,0.0,0 STARLINK-3570,1 51882U 22022AG  22086.91668981 -.00002821  00000-0 -15646-4 0  9999,2 51882  53.2185  23.8311 0000815  59.4322 243.7319 15.73268048  3700,6727.701,91.529,350.11400000000015,349.01800000000014,0.0
51882.0,STARLINK-3570,PAYLOAD,2022-03-28 14:00:01,15.73187033,0.0001279,53.2187,20.5317,71.7819,49.4127,7.1575e-05,9.431e-05,0.0,0 STARLINK-3570,1 51882U 22022AG  22087.58335648  .00009431  00000-0  71575-4 0  9999,2 51882  53.2187  20.5317 0001279  71.7819  49.4127 15.73187033  3707,6727.932,91.534,350.658,348.93699999999984,0.0
51882.0,STARLINK-3570,PAYLOAD,2022-03-28 22:00:00,15.73238765,0.0001351999999999,53.2191,18.8826,76.0028,134.0247,-0.00046676,-0.00065725,0.0,0 STARLINK-3570,1 51882U 22022AG  22087.91667824 -.00065725  00000-0 -46676-3 0  9993,2 51882  53.2191  18.8826 0001352  76.0028 134.0247 15.73238765  5254,6727.785,91.531,350.559,348.74,0.0
51882.0,STARLINK-3570,PAYLOAD,2022-03-29 14:00:01,15.73105081,0.0001124,53.219,15.5834,74.3334,313.5348,0.00035043,0.00048646,0.0,0 STARLINK-3570,1 51882U 22022AG  22088.58334491  .00048646  00000-0  35043-3 0  9995,2 51882  53.2190  15.5834 0001124  74.3334 313.5348 15.73105081  3667,6728.166,91.539,350.787,349.275,0.0
51882.0,STARLINK-3570,PAYLOAD,2022-03-29 20:00:01,15.73138034,0.0001223,53.219,14.3466,78.2173,286.2666,0.00044829,0.00062597,0.0,0 STARLINK-3570,1 51882U 22022AG  22088.83334491  .00062597  00000-0  44829-3 0  9996,2 51882  53.2190  14.3466 0001223  78.2173 286.2666 15.73138034  5394,6728.071999999999,91.537,350.76,349.11400000000015,0.0
51882.0,STARLINK-3570,PAYLOAD,2022-03-29 22:00:00,15.72834972,0.0001252,53.2177,13.9231,86.0109,30.7294,0.003701,0.00545464,0.0,0 STARLINK-3570,1 51882U 22022AG  22088.91667824  .00545464  00000-0  37010-2 0  9996,2 51882  53.2177  13.9231 0001252  86.0109  30.7294 15.72834972  3662,6728.936,91.554,351.644,349.959,0.0
51882.0,STARLINK-3570,PAYLOAD,2022-03-30 04:00:00,15.73207574,0.0001455,53.2175,12.6848,80.2451,12.9706,-3.3231e-05,-5.283e-05,0.0,0 STARLINK-3570,1 51882U 22022AG  22089.16667824 -.00005283  00000-0 -33231-4 0  9999,2 51882  53.2175  12.6848 0001455  80.2451  12.9706 15.73207574  5442,6727.874,91.533,350.717,348.76,0.0
51882.0,STARLINK-3570,PAYLOAD,2022-03-30 12:00:00,15.732699599999998,0.0001250999999999,53.219,11.0484,74.7232,107.5769,-0.00050802,-0.00071526,0.0,0 STARLINK-3570,1 51882U 22022AG  22089.50001157 -.00071526  00000-0 -50802-3 0  9993,2 51882  53.2190  11.0484 0001251  74.7232 107.5769 15.73269960  5501,6727.696,91.529,350.402,348.719,0.0
51882.0,STARLINK-3570,PAYLOAD,2022-03-30 14:00:01,15.73217408,0.0001254,53.2191,10.6355,78.0721,216.5481,3.9709e-05,4.96e-05,0.0,0 STARLINK-3570,1 51882U 22022AG  22089.58335648  .00004960  00000-0  39709-4 0  9996,2 51882  53.2191  10.6355 0001254  78.0721 216.5481 15.73217408  3675,6727.846,91.532,350.55400000000014,348.867,0.0
51882.0,STARLINK-3570,PAYLOAD,2022-03-30 22:00:00,15.73245165,0.0001221,53.2194,8.9867,78.1386,305.362,-0.00046333,-0.00065267,0.0,0 STARLINK-3570,1 51882U 22022AG  22089.91667824 -.00065267  00000-0 -46333-3 0  9996,2 51882  53.2194   8.9867 0001221  78.1386 305.3620 15.73245165  3727,6727.766,91.531,350.45300000000015,348.81,0.0
51882.0,STARLINK-3570,PAYLOAD,2022-03-31 06:00:00,15.73218783,0.0001022,53.2191,7.3387,62.8471,49.6168,-0.00018831,-0.00026983,0.0,0 STARLINK-3570,1 51882U 22022AG  22090.25001157 -.00026983  00000-0 -18831-3 0  9990,2 51882  53.2191   7.3387 0001022  62.8471  49.6168 15.73218783  5619,6727.842,91.532,350.394,349.019,0.0
51882.0,STARLINK-3570,PAYLOAD,2022-03-31 14:00:01,15.73181225,7.94e-05,53.219,5.6873,75.798,125.6113,0.00054947,0.00077142,0.0,0 STARLINK-3570,1 51882U 22022AG  22090.58334491  .00077142  00000-0  54947-3 0  9995,2 51882  53.2190   5.6873 0000794  75.7980 125.6113 15.73181225  3693,6727.949000000001,91.534,350.348,349.28,0.0
51882.0,STARLINK-3570,PAYLOAD,2022-03-31 22:00:00,15.73261254,0.0001027,53.2189,4.039,76.5389,213.8222,-0.00053096,-0.0007467,0.0,0 STARLINK-3570,1 51882U 22022AG  22090.91667824 -.00074670  00000-0 -53096-3 0  9990,2 51882  53.2189   4.0390 0001027  76.5389 213.8222 15.73261254  5728,6727.721,91.53,350.276,348.895,0.0
51882.0,STARLINK-3570,PAYLOAD,2022-04-01 06:00:00,15.7321575,0.0001138,53.2184,2.3907,68.1816,311.1736,0.00030798,0.00042852,0.0,0 STARLINK-3570,1 51882U 22022AG  22091.25001157  .00042852  00000-0  30798-3 0  9998,2 51882  53.2184   2.3907 0001138  68.1816 311.1736 15.73215750  5770,6727.85,91.532,350.481,348.95,0.0
51882.0,STARLINK-3570,PAYLOAD,2022-04-01 14:00:01,15.73204728,0.000106,53.2187,0.7392,84.1308,24.1872,-0.00014705,-0.00021208,0.0,0 STARLINK-3570,1 51882U 22022AG  22091.58334491 -.00021208  00000-0 -14705-3 0  9998,2 51882  53.2187   0.7392 0001060  84.1308  24.1872 15.73204728  5822,6727.882,91.533,350.46,349.034,0.0
51882.0,STARLINK-3570,PAYLOAD,2022-04-01 22:00:00,15.73187882,0.0001295,53.2189,359.0908,80.9741,116.2544,-0.00073624,-0.00102641,0.0,0 STARLINK-3570,1 51882U 22022AG  22091.91667824 -.00102641  00000-0 -73624-3 0  9990,2 51882  53.2189 359.0908 0001295  80.9741 116.2544 15.73187882  3673,6727.93,91.534,350.666,348.923,0.0
51882.0,STARLINK-3570,PAYLOAD,2022-04-02 06:00:00,15.73089691,0.0001215,53.218,357.4375,70.7717,215.3336,0.00068122,0.00095625,0.0,0 STARLINK-3570,1 51882U 22022AG  22092.25001157  .00095625  00000-0  68122-3 0  9997,2 51882  53.2180 357.4375 0001215  70.7717 215.3336 15.73089691  5936,6728.21,91.54,350.892,349.25699999999995,0.0
51882.0,STARLINK-3570,PAYLOAD,2022-04-02 14:00:01,15.73190337,0.000114,53.2184,355.7911,84.8091,290.2998,8.9196e-05,0.00011911,0.0,0 STARLINK-3570,1 51882U 22022AG  22092.58335648  .00011911  00000-0  89196-4 0  9999,2 51882  53.2184 355.7911 0001140  84.8091 290.2998 15.73190337  5986,6727.9230000000025,91.534,350.555,349.021,0.0
51882.0,STARLINK-3570,PAYLOAD,2022-04-02 22:00:01,15.7322342,0.0001221,53.2183,354.1431,81.3269,22.7151,-0.00077831,-0.00108559,0.0,0 STARLINK-3570,1 51882U 22022AG  22092.91668981 -.00108559  00000-0 -77831-3 0  9994,2 51882  53.2183 354.1431 0001221  81.3269  22.7151 15.73223420  3699,6727.828,91.532,350.515,348.872,0.0
51882.0,STARLINK-3570,PAYLOAD,2022-04-03 04:00:00,15.73119814,0.0001193,53.218,352.9072,75.7189,4.968,0.00039301,0.00054706,0.0,0 STARLINK-3570,1 51882U 22022AG  22093.16667824  .00054706  00000-0  39301-3 0  9999,2 51882  53.2180 352.9072 0001193  75.7189   4.9680 15.73119814  6074,6728.124,91.538,350.791,349.186,0.0
51882.0,STARLINK-3570,PAYLOAD,2022-04-03 22:00:00,15.7316628,0.0001044,53.2182,349.1952,82.1162,288.52,0.00022519,0.00031055,0.0,0 STARLINK-3570,1 51882U 22022AG  22093.91667824  .00031055  00000-0  22519-3 0  9997,2 51882  53.2182 349.1952 0001044  82.1162 288.5200 15.73166280  6199,6727.991,91.535,350.559,349.154,0.0
51882.0,STARLINK-3570,PAYLOAD,2022-04-04 14:00:01,15.731853400000002,0.0001262999999999,53.2177,345.8949,90.0314,98.4324,9.5522e-05,0.00012798,0.0,0 STARLINK-3570,1 51882U 22022AG  22094.58334491  .00012798  00000-0  95522-4 0  9990,2 51882  53.2177 345.8949 0001263  90.0314  98.4324 15.73185340  3709,6727.937,91.534,350.652,348.952,0.0
51882.0,STARLINK-3570,PAYLOAD,2022-04-04 22:00:00,15.73206372,0.0001364,53.2175,344.2472,84.3052,193.0993,0.00041374,0.00057862,0.0,0 STARLINK-3570,1 51882U 22022AG  22094.91667824  .00057862  00000-0  41374-3 0  9992,2 51882  53.2175 344.2472 0001364  84.3052 193.0993 15.73206372  3701,6727.877,91.533,350.66,348.824,0.0
51882.0,STARLINK-3570,PAYLOAD,2022-04-05 06:00:00,15.73284901,0.0001145,53.2169,342.5979,79.1578,287.1812,-0.00020966,-0.00030046,0.0,0 STARLINK-3570,1 51882U 22022AG  22095.25001157 -.00030046  00000-0 -20966-3 0  9992,2 51882  53.2169 342.5979 0001145  79.1578 287.1812 15.73284901  6408,6727.653,91.528,350.288,348.74800000000016,0.0
51882.0,STARLINK-3570,PAYLOAD,2022-04-05 14:00:01,15.73230401,9.61e-05,53.2172,340.9462,95.4945,359.915,-0.00026465,-0.00037642,0.0,0 STARLINK-3570,1 51882U 22022AG  22095.58335648 -.00037642  00000-0 -26465-3 0  9992,2 51882  53.2172 340.9462 0000961  95.4945 359.9150 15.73230401  3715,6727.809,91.531,350.32,349.027,0.0
51882.0,STARLINK-3570,PAYLOAD,2022-04-05 16:00:00,15.73225052,9.96e-05,53.2175,340.534,96.0591,111.511,-0.00044344,-0.00062457,0.0,0 STARLINK-3570,1 51882U 22022AG  22095.66667824 -.00062457  00000-0 -44344-3 0  9993,2 51882  53.2175 340.5340 0000996  96.0591 111.5110 15.73225052  6471,6727.824000000001,91.532,350.3590000000001,349.019,0.0
